ABS-3A                  
1 40424U 15010A   18059.56833897 -.00000054  00000-0  00000-0 0  9993
2 40424   0.0208 114.0088 0001499 142.3265 103.6145  1.00271652 11033
EUTELSAT 115 WEST B     
1 40425U 15010B   18058.88125682 -.00000051  00000-0  00000+0 0  9990
2 40425   0.0092 324.5856 0000342 140.6378 254.7480  1.00271832 11049
EXPRESS-AM7             
1 40505U 15012A   18060.03539649  .00000122  00000-0  00000+0 0  9991
2 40505   0.0194 133.9767 0002490 180.4522 257.0954  1.00275241 10974
IRNSS-1D                
1 40547U 15018A   18059.05955122 -.00000303  00000-0  00000-0 0  9994
2 40547  28.5807 290.9495 0019064 180.8859 179.1532  1.00267976 10602
THOR 7                  
1 40613U 15022A   18059.56200569 -.00000037  00000-0  00000+0 0  9990
2 40613   0.0132 185.8029 0002820 150.6039  23.5466  1.00271278 10433
TURKMENALEM52E/MONACOSAT
1 40617U 15023A   18059.41604731  .00000076  00000-0  00000+0 0  9990
2 40617   0.0149 149.0161 0002841 199.0713  11.9058  1.00272889 10452
DIRECTV 15              
1 40663U 15026A   18058.84758678 -.00000129  00000-0  00000+0 0  9990
2 40663   0.0147 113.9186 0000439 158.1481  87.8959  1.00269535 10149
SKY MEXICO-1            
1 40664U 15026B   18059.77851842 -.00000262  00000-0  00000-0 0  9990
2 40664   0.0174 130.1082 0002644 219.8429  10.0097  1.00269971 10160
METEOSAT-11 (MSG-4)     
1 40732U 15034A   18059.17648986 -.00000030  00000-0  00000-0 0  9995
2 40732   1.4285 222.6970 0001440 108.9448 250.0301  1.00264932  9657
STAR ONE C4             
1 40733U 15034B   18058.75681199 -.00000291  00000-0  00000-0 0  9991
2 40733   0.0298  16.7986 0002712 328.6081  14.5533  1.00271928  9645
INTELSAT 34 (IS-34)     
1 40874U 15039A   18059.71396676 -.00000313  00000-0  00000-0 0  9997
2 40874   0.0225 137.2990 0000656 104.6565 118.0378  1.00268298  9282
EUTELSAT 8 WEST B       
1 40875U 15039B   18059.58234922 -.00000094  00000-0  00000-0 0  9994
2 40875   0.0673  13.5009 0003297 327.0855  19.3674  1.00272219  9307
GSAT-6                  
1 40880U 15041A   18059.32996018 -.00000192  00000-0  00000+0 0  9994
2 40880   0.0804 267.9108 0008684  16.8441  75.1157  1.00272254  9241
INMARSAT 5-F3           
1 40882U 15042A   18060.05996158  .00000021  00000-0  00000+0 0  9994
2 40882   0.0036 161.2263 0000437 102.5325  96.2022  1.00271703  9175
TJS-1                   
1 40892U 15046A   18059.86577046 -.00000186  00000-0  00000-0 0  9991
2 40892   0.1087 282.1043 0006985  85.6266 257.4596  1.00272319  9161
EXPRESS-AM8             
1 40895U 15048A   18059.79438488 -.00000140  00000-0  00000-0 0  9994
2 40895   0.0263 282.4413 0000485 186.2370 321.8165  1.00271467  8997
SKY MUSTER (NBN1A)      
1 40940U 15054A   18059.82167365 -.00000308  00000-0  00000-0 0  9995
2 40940   0.0179 155.7340 0002042 180.8833 257.9945  1.00268627  8900
ARSAT 2                 
1 40941U 15054B   18058.78730234 -.00000251  00000-0  00000-0 0  9998
2 40941   0.0193 210.7666 0001621 123.0924  26.1004  1.00270782  8932
MORELOS 3               
1 40946U 15056A   18059.78742488 -.00000068  00000-0  00000+0 0  9995
2 40946   6.0809 328.8282 0003149 355.0023   5.0401  1.00272497  8905
APSTAR 9                
1 40982U 15059A   18059.16680385 -.00000294  00000-0  00000-0 0  9999
2 40982   0.0636 275.7664 0002150  42.5624  41.6217  1.00269788  8761
TURKSAT 4B              
1 40984U 15060A   18059.42169374  .00000087  00000-0  00000-0 0  9991
2 40984   0.0143 154.0315 0002308 189.6687  16.2924  1.00268913  8734
CHINASAT 2C (ZX 2C)     
1 41021U 15063A   18059.90423549 -.00000352  00000-0  00000+0 0  9992
2 41021   0.0405 288.6822 0004986  60.4143 238.4632  1.00270969  8628
GSAT-15                 
1 41028U 15065A   18059.30123273 -.00000285  00000-0  00000-0 0  9992
2 41028   0.0590 279.0390 0001803  46.2239  34.6920  1.00270245  8462
BADR-7 (ARABSAT-6B)     
1 41029U 15065B   18059.48811031  .00000117  00000-0  00000-0 0  9991
2 41029   0.0495 254.7585 0004053  10.6466  94.5151  1.00271516  8384
LAOSAT 1                
1 41034U 15067A   18059.20418368 -.00000371  00000-0  00000-0 0  9998
2 41034   0.0183 300.7509 0001339 322.9046  96.3293  1.00270950  8488
TELSTAR 12V             
1 41036U 15068A   18059.60173260 -.00000147  00000-0  00000+0 0  9994
2 41036   0.0177 165.1207 0002287 178.4324  16.4395  1.00269351  8341
CHINASAT 1C (ZX 1C)     
1 41103U 15073A   18059.87688135 -.00000179  00000-0  00000-0 0  9992
2 41103   0.0324 277.0136 0003688  29.9520 248.8436  1.00271163  8282
ELEKTRO-L 2             
1 41105U 15074A   18059.96594784 -.00000124  00000-0  00000-0 0  9991
2 41105   0.0784 285.2708 0000914  46.6384 250.4275  1.00270102  8139
COSMOS 2513             
1 41121U 15075A   18059.83448719 -.00000166  00000-0  00000-0 0  9998
2 41121   0.0695 111.3278 0002409 240.5076 187.3853  1.00271113  8215
EXPRESS-AMU1            
1 41191U 15082A   18059.65819755  .00000127  00000-0  00000-0 0  9991
2 41191   0.0129 162.2784 0002499 159.0056 110.1275  1.00270639  8126
GAOFEN 4                
1 41194U 15083A   18060.06186126 -.00000363  00000-0  00000+0 0  9993
2 41194   0.0461 262.5808 0003806 329.3928  54.8122  1.00271911  8109
BELINTERSAT-1           
1 41238U 16001A   18059.81854829  .00000078  00000-0  00000-0 0  9999
2 41238   0.0290 284.1608 0000695 352.4094 228.1330  1.00273149  7886
IRNSS-1E                
1 41241U 16003A   18059.55604692 -.00000308  00000-0  00000-0 0  9994
2 41241  29.2070 110.2730 0020686 184.9717 175.0992  1.00272615  7708
INTELSAT 29E (IS-29E)   
1 41308U 16004A   18059.69874916 -.00000310  00000-0  00000-0 0  9995
2 41308   0.0416 262.8759 0001957  77.4800  19.6026  1.00269570  7771
EUTELSAT 9B             
1 41310U 16005A   18059.53516357  .00000033  00000-0  00000-0 0  9995
2 41310   0.0186  93.4129 0005549 217.7336  48.7720  1.00270289  7730
SES-9                   
1 41380U 16013A   18059.26017690 -.00000373  00000-0  00000+0 0  9994
2 41380   0.0499 301.0023 0001434  53.5168   5.4460  1.00274113  7363
EUTELSAT 65 WEST A      
1 41382U 16014A   18059.74075894 -.00000304  00000-0  00000-0 0  9995
2 41382   0.0541   1.7160 0002016 347.3421  10.9037  1.00271953  7160
IRNSS-1F                
1 41384U 16015A   18059.18766229  .00000127  00000-0  00000-0 0  9997
2 41384   3.6342 258.2026 0019242 173.9539 185.7581  1.00271785  7306
IRNSS-1G                
1 41469U 16027A   18058.92313732 -.00000365  00000-0  00000-0 0  9997
2 41469   3.7021 259.7994 0004404 176.5156 183.2022  1.00276232  6802
JCSAT 2B                
1 41471U 16028A   18059.13355100 -.00000193  00000-0  00000-0 0  9999
2 41471   0.0156 129.0702 0002123 203.3346  27.5509  1.00271330  6721
THAICOM 8               
1 41552U 16031A   18059.34266269 -.00000149  00000-0  00000-0 0  9994
2 41552   0.0754  58.7123 0005528 302.9784 358.2777  1.00271711  6391
INTELSAT 31 (IS-31)     
1 41581U 16035A   18058.82623523 -.00000177  00000-0  00000-0 0  9993
2 41581   0.0241 220.7348 0002070 351.3197 147.9007  1.00270584  6283
BD-2-G7                 
1 41586U 16037A   18060.15691030 -.00000276  00000-0  00000+0 0  9996
2 41586   0.8790 336.2004 0002975 313.4094  70.3226  1.00270554  6410
ABS-2A (MONGOLSAT-1)    
1 41588U 16038A   18059.35321983 -.00000111  00000-0  00000-0 0  9995
2 41588   0.0244 108.1598 0001774 161.4533  90.3334  1.00269608  6327
EUTELSAT 117 WEST B     
1 41589U 16038B   18059.88429240 -.00000040  00000-0  00000+0 0  9999
2 41589   0.0068 331.4991 0000530 148.7683 239.7039  1.00272464  6328
BRISAT                  
1 41591U 16039A   18059.14330091 -.00000224  00000-0  00000+0 0  9991
2 41591   0.0221 139.5712 0002401 199.3149  21.1040  1.00268952  6252
ECHOSTAR 18             
1 41592U 16039B   18059.73014095 -.00000310  00000-0  00000-0 0  9997
2 41592   0.0529 277.3792 0002108  54.9455  27.6301  1.00273793  6242
TIANTONG-1 1            
1 41725U 16048A   18059.90408420 -.00000343  00000-0  00000-0 0  9999
2 41725   4.2190 325.9604 0007352  20.8784 238.6572  1.00268267  5888
JCSAT-16                
1 41729U 16050A   18059.11125590 -.00000119  00000-0  00000+0 0  9993
2 41729   0.0124 126.6217 0002065 209.9644  23.3715  1.00271613  5685
INTELSAT 36 (IS-36)     
1 41747U 16053A   18059.37042699 -.00000052  00000-0  00000-0 0  9999
2 41747   0.0087 129.0402 0002375 199.8740  31.0718  1.00269578  5602
INTELSAT 33E (IS-33E)   
1 41748U 16053B   18059.39398999  .00000021  00000-0  00000-0 0  9994
2 41748   0.0197 320.7132 0001953  20.1495  19.0965  1.00271120  5874
INSAT-3DR               
1 41752U 16054A   18059.35503977 -.00000104  00000-0  00000-0 0  9993
2 41752   0.0222 236.0125 0008869  52.6861  71.1720  1.00271487  5424
GSAT-18                 
1 41793U 16060A   18059.35535575 -.00000105  00000-0  00000-0 0  9995
2 41793   0.0749 267.4706 0004506 175.2790 277.2679  1.00272133  5154
SKY MUSTER 2            
1 41794U 16060B   18059.15907848 -.00000272  00000-0  00000-0 0  9995
2 41794   0.0165 160.6427 0001850 176.7636  22.5856  1.00268628  5146
HIMAWARI-9              
1 41836U 16064A   18060.16752736 -.00000304  00000-0  00000+0 0  9998
2 41836   0.0088  80.8977 0001062 250.5023  28.5599  1.00271415  4929
SHIJIAN-17 (SJ-17)      
1 41838U 16065A   18059.96648355 -.00000174  00000-0  00000-0 0  9994
2 41838   4.0170  70.1393 0002872 209.5589 334.3025  0.99136867  4843
GOES 16                 
1 41866U 16071A   18058.77128506 -.00000274  00000-0  00000-0 0  9992
2 41866   0.0040 165.0159 0001473 209.5047 345.4836  1.00270392  4719
TIANLIAN 1-04           
1 41869U 16072A   18059.26882321 -.00000134  00000-0  00000+0 0  9997
2 41869   2.1202 287.8177 0010486 138.1769 265.7099  1.00271744  4920
FENGYUN 4A              
1 41882U 16077A   18060.28737499 -.00000359  00000-0  00000+0 0  9995
2 41882   0.0925  92.1326 0009119  40.3765 234.6274  1.00273810  4609
